$$SOE
2460154.500000000, A.D. 2023-Jul-29 00:00:00.0000, -1.181393054773850E+08, 3.653468841107255E+08, 2.038758384904274E+07,
2460161.500000000, A.D. 2023-Aug-05 00:00:00.0000, -1.283606483606557E+08, 3.631461817101887E+08, 1.880053512722769E+07,
2460168.500000000, A.D. 2023-Aug-12 00:00:00.0000, -1.384733471572121E+08, 3.606380427174271E+08, 1.719756830514115E+07,
2460175.500000000, A.D. 2023-Aug-19 00:00:00.0000, -1.484698130723997E+08, 3.578271126160362E+08, 1.558016112849706E+07,
2460182.500000000, A.D. 2023-Aug-26 00:00:00.0000, -1.583426446663380E+08, 3.547181314307651E+08, 1.394977558059406E+07,
2460189.500000000, A.D. 2023-Sep-02 00:00:00.0000, -1.680846223973937E+08, 3.513159287892358E+08, 1.230785812605883E+07,
2460196.500000000, A.D. 2023-Sep-09 00:00:00.0000, -1.776887032578749E+08, 3.476254193650569E+08, 1.065583997805741E+07,
2460203.500000000, A.D. 2023-Sep-16 00:00:00.0000, -1.871480153472547E+08, 3.436515986185496E+08, 8.995137364497200E+06,
2460210.500000000, A.D. 2023-Sep-23 00:00:00.0000, -1.964558519788147E+08, 3.393995390971066E+08, 7.327151774571538E+06,
2460217.500000000, A.D. 2023-Sep-30 00:00:00.0000, -2.056056656712158E+08, 3.348743884631407E+08, 5.653270310534984E+06,
2460224.500000000, A.D. 2023-Oct-07 00:00:00.0000, -2.145910643892452E+08, 3.300813686878425E+08, 3.974866312740058E+06,
2460231.500000000, A.D. 2023-Oct-14 00:00:00.0000, -2.234058089986432E+08, 3.250257730771263E+08, 2.293299888679862E+06,
2460238.500000000, A.D. 2023-Oct-21 00:00:00.0000, -2.320438087124487E+08, 3.197129627074090E+08, 6.099181786403805E+05,
2460245.500000000, A.D. 2023-Oct-28 00:00:00.0000, -2.404991159643981E+08, 3.141483645137520E+08, -1.073944329106525E+06,
2460252.500000000, A.D. 2023-Nov-04 00:00:00.0000, -2.487659219664090E+08, 3.083374702468065E+08, -2.756965384513468E+06,
2460259.500000000, A.D. 2023-Nov-11 00:00:00.0000, -2.568385527766823E+08, 3.022858356835483E+08, -4.437834530949160E+06,
2460266.500000000, A.D. 2023-Nov-18 00:00:00.0000, -2.647114656627666E+08, 2.959990800127088E+08, -6.115252656849861E+06,
2460273.500000000, A.D. 2023-Nov-25 00:00:00.0000, -2.723792456892958E+08, 2.894828854037515E+08, -7.787931550646558E+06,
2460280.500000000, A.D. 2023-Dec-02 00:00:00.0000, -2.798366025028887E+08, 2.827429967341062E+08, -9.454593464138106E+06,
2460287.500000000, A.D. 2023-Dec-09 00:00:00.0000, -2.870783672365090E+08, 2.757852214000705E+08, -1.111397069742517E+07,
2460294.500000000, A.D. 2023-Dec-16 00:00:00.0000, -2.940994892478923E+08, 2.686154292073294E+08, -1.276480523152862E+07,
2460301.500000000, A.D. 2023-Dec-23 00:00:00.0000, -3.008950323495334E+08, 2.612395530135589E+08, -1.440584838538322E+07,
2460308.500000000, A.D. 2023-Dec-30 00:00:00.0000, -3.074601718799894E+08, 2.536635911620061E+08, -1.603586029023494E+07,
2460315.500000000, A.D. 2024-Jan-06 00:00:00.0000, -3.137901943983356E+08, 2.458936093410661E+08, -1.765360921446955E+07,
2460322.500000000, A.D. 2024-Jan-13 00:00:00.0000, -3.198804968311908E+08, 2.379357400587779E+08, -1.925787117976625E+07,
2460329.500000000, A.D. 2024-Jan-20 00:00:00.0000, -3.257265838490623E+08, 2.297961828065583E+08, -2.084742972999788E+07,
2460336.500000000, A.D. 2024-Jan-27 00:00:00.0000, -3.313240655066174E+08, 2.214812055558485E+08, -2.242107561554706E+07,
2460343.500000000, A.D. 2024-Feb-03 00:00:00.0000, -3.366686555800735E+08, 2.129971466337331E+08, -2.397760643348881E+07,
2460350.500000000, A.D. 2024-Feb-10 00:00:00.0000, -3.417561703267077E+08, 2.043504166796412E+08, -2.551582627444568E+07,
2460357.500000000, A.D. 2024-Feb-17 00:00:00.0000, -3.465825275302818E+08, 1.955475006830156E+08, -2.703454538944508E+07,
2460364.500000000, A.D. 2024-Feb-24 00:00:00.0000, -3.511437457997292E+08, 1.865949601083394E+08, -2.853257988001063E+07,
2460371.500000000, A.D. 2024-Mar-02 00:00:00.0000, -3.554359440960129E+08, 1.774994350662671E+08, -3.000875141790120E+07,
2460378.500000000, A.D. 2024-Mar-09 00:00:00.0000, -3.594553413540696E+08, 1.682676464590915E+08, -3.146188701346952E+07,
2460385.500000000, A.D. 2024-Mar-16 00:00:00.0000, -3.631982558118625E+08, 1.589063982891189E+08, -3.289081885405233E+07,
2460392.500000000, A.D. 2024-Mar-23 00:00:00.0000, -3.666611041590163E+08, 1.494225812307626E+08, -3.429438411385000E+07,
2460399.500000000, A.D. 2024-Mar-30 00:00:00.0000, -3.698404027575571E+08, 1.398231774323072E+08, -3.567142453419818E+07,
2460406.500000000, A.D. 2024-Apr-06 00:00:00.0000, -3.727327706915399E+08, 1.301152631753697E+08, -3.702078607592633E+07,
2460413.500000000, A.D. 2024-Apr-13 00:00:00.0000, -3.753349311023892E+08, 1.203060102246262E+08, -3.834131890318488E+07,
2460420.500000000, A.D. 2024-Apr-20 00:00:00.0000, -3.776437117681375E+08, 1.104026885356264E+08, -3.963187739380384E+07,
2460427.500000000, A.D. 2024-Apr-27 00:00:00.0000, -3.796560464551705E+08, 1.004126697494688E+08, -4.089132008533191E+07,
2460434.500000000, A.D. 2024-May-04 00:00:00.0000, -3.813689769677177E+08, 9.034343076343064E+07, -4.211850962528496E+07,
2460441.500000000, A.D. 2024-May-11 00:00:00.0000, -3.827796556683884E+08, 8.020255726771250E+07, -4.331231275828072E+07,
2460448.500000000, A.D. 2024-May-18 00:00:00.0000, -3.838853483995039E+08, 6.999774726013905E+07, -4.447160035814891E+07,
2460455.500000000, A.D. 2024-May-25 00:00:00.0000, -3.846834377933415E+08, 5.973681452070682E+07, -4.559524751038970E+07,
2460462.500000000, A.D. 2024-Jun-01 00:00:00.0000, -3.851714269253322E+08, 4.942769197664654E+07, -4.668213365791740E+07,
2460469.500000000, A.D. 2024-Jun-08 00:00:00.0000, -3.853469430785145E+08, 3.907843492214921E+07, -4.773114283749886E+07,
2460476.500000000, A.D. 2024-Jun-15 00:00:00.0000, -3.852077412347615E+08, 2.869722462364335E+07, -4.874116400203056E+07,
2460483.500000000, A.D. 2024-Jun-22 00:00:00.0000, -3.847517083135672E+08, 1.829237346952988E+07, -4.971109124365856E+07,
2460490.500000000, A.D. 2024-Jun-29 00:00:00.0000, -3.839768702981821E+08, 7.872329825028051E+06, -5.063982387607168E+07,
2460497.500000000, A.D. 2024-Jul-06 00:00:00.0000, -3.828813996251436E+08, -2.554319897517754E+06, -5.152626682561781E+07,
2460504.500000000, A.D. 2024-Jul-13 00:00:00.0000, -3.814636209059495E+08, -1.297884914730943E+07, -5.236933128350815E+07,
2460511.500000000, A.D. 2024-Jul-20 00:00:00.0000, -3.797220169821317E+08, -2.339238799739423E+07, -5.316793534687179E+07,
2460518.500000000, A.D. 2024-Jul-27 00:00:00.0000, -3.776552359894499E+08, -3.378591974759582E+07, -5.392100467241730E+07,
2460525.500000000, A.D. 2024-Aug-03 00:00:00.0000, -3.752620991809697E+08, -4.415027777054110E+07, -5.462747320511924E+07,
2460532.500000000, A.D. 2024-Aug-10 00:00:00.0000, -3.725416093642418E+08, -5.447614263274281E+07, -5.528628400375509E+07,
2460539.500000000, A.D. 2024-Aug-17 00:00:00.0000, -3.694929599228682E+08, -6.475403949889660E+07, -5.589639017104959E+07,
2460546.500000000, A.D. 2024-Aug-24 00:00:00.0000, -3.661155444094042E+08, -7.497433587619312E+07, -5.645675589721826E+07,
2460553.500000000, A.D. 2024-Aug-31 00:00:00.0000, -3.624089666079324E+08, -8.512723980119711E+07, -5.696635763719101E+07,
2460560.500000000, A.D. 2024-Sep-07 00:00:00.0000, -3.583730507167659E+08, -9.520279839041290E+07, -5.742418545095536E+07,
2460567.500000000, A.D. 2024-Sep-14 00:00:00.0000, -3.540078515847352E+08, -1.051908958102071E+08, -5.782924444166058E+07,
2460574.500000000, A.D. 2024-Sep-21 00:00:00.0000, -3.493136670492385E+08, -1.150812503075331E+08, -5.818055608100478E+07,
2460581.500000000, A.D. 2024-Sep-28 00:00:00.0000, -3.442910528825957E+08, -1.248634135864848E+08, -5.847715965086067E+07,
2460588.500000000, A.D. 2024-Oct-05 00:00:00.0000, -3.389408366945278E+08, -1.345267725890582E+08, -5.871811414721743E+07,
2460595.500000000, A.D. 2024-Oct-12 00:00:00.0000, -3.332641311620697E+08, -1.440605507624661E+08, -5.890250037746211E+07,
2460602.500000000, A.D. 2024-Oct-19 00:00:00.0000, -3.272623483406997E+08, -1.534538091527084E+08, -5.902942311878274E+07,
2460609.500000000, A.D. 2024-Oct-26 00:00:00.0000, -3.209372150884299E+08, -1.626954482036508E+08, -5.909801340723981E+07,
2460616.500000000, A.D. 2024-Nov-02 00:00:00.0000, -3.142907893434802E+08, -1.717742104947677E+08, -5.910743100152635E+07,
2460623.500000000, A.D. 2024-Nov-09 00:00:00.0000, -3.073254771530800E+08, -1.806786844861863E+08, -5.905686703692931E+07,
2460630.500000000, A.D. 2024-Nov-16 00:00:00.0000, -3.000440504148901E+08, -1.893973093649939E+08, -5.894554687949003E+07,
2460637.500000000, A.D. 2024-Nov-23 00:00:00.0000, -2.924496652637418E+08, -1.979183811428440E+08, -5.877273319578537E+07,
2460644.500000000, A.D. 2024-Nov-30 00:00:00.0000, -2.845458808668468E+08, -2.062300601537199E+08, -5.853772926746068E+07,
2460651.500000000, A.D. 2024-Dec-07 00:00:00.0000, -2.763366781703165E+08, -2.143203796429902E+08, -5.823988256043912E+07,
2460658.500000000, A.D. 2024-Dec-14 00:00:00.0000, -2.678264792368045E+08, -2.221772543403486E+08, -5.787858839030531E+07,
2460665.500000000, A.D. 2024-Dec-21 00:00:00.0000, -2.590201694311713E+08, -2.297884903793024E+08, -5.745329357614858E+07,
2460672.500000000, A.D. 2024-Dec-28 00:00:00.0000, -2.499231204084680E+08, -2.371417996592498E+08, -5.696350050949167E+07,
2460679.500000000, A.D. 2025-Jan-04 00:00:00.0000, -2.405412112221842E+08, -2.442248164064711E+08, -5.640877168445435E+07,
2460686.500000000, A.D. 2025-Jan-11 00:00:00.0000, -2.308808492725055E+08, -2.510251144063276E+08, -5.578873438561924E+07,
2460693.500000000, A.D. 2025-Jan-18 00:00:00.0000, -2.209489918900198E+08, -2.575302259570551E+08, -5.510308552047914E+07,
2460700.500000000, A.D. 2025-Jan-25 00:00:00.0000, -2.107531681689958E+08, -2.637276631516369E+08, -5.435159665083092E+07,
2460707.500000000, A.D. 2025-Feb-01 00:00:00.0000, -2.003015006980209E+08, -2.696049416500589E+08, -5.353411923419669E+07,
2460714.500000000, A.D. 2025-Feb-08 00:00:00.0000, -1.896027269471652E+08, -2.751496070514926E+08, -5.265059006775270E+07,
$$EOE